{
  "type": "FeatureCollection",
  "features": [
    {
      "type": "Feature",
      "properties": {
        "norad_id": 33972,
        "name": "COSMOS 2251 DEB",
        "group": "cosmos-2251-debris",
        "lat": 48.93494315364312,
        "lon": -146.65369621243323,
        "alt_km": 708.4731936040971,
        "timestamp": "2025-12-10T20:49:52.945833+00:00",
        "meta_object_name": "COSMOS 2251 DEB",
        "meta_object_id": "1993-036FF",
        "meta_epoch": "2025-12-10T14:02:59.237376",
        "meta_mean_motion": 14.36196835,
        "meta_eccentricity": 0.01231818,
        "meta_inclination": 73.9945,
        "meta_ra_of_asc_node": 194.6317,
        "meta_arg_of_pericenter": 2.8238,
        "meta_mean_anomaly": 27.4723,
        "meta_ephemeris_type": 0,
        "meta_classification_type": "U",
        "meta_norad_cat_id": 33972,
        "meta_element_set_no": 999,
        "meta_rev_at_epoch": 87043,
        "meta_bstar": 0.0015066162,
        "meta_mean_motion_dot": 4.768e-05,
        "meta_mean_motion_ddot": 0,
        "tle_line1": "1 33972U 93036FF  25344.58540784  .00004768  00000+0  15066-2 0  9998",
        "tle_line2": "2 33972  73.9945 194.6317 0123181   2.8238  27.4723 14.36196835870436"
      },
      "geometry": {
        "type": "Point",
        "coordinates": [
          -146.65369621243323,
          48.93494315364312
        ]
      }
    },
    {
      "type": "Feature",
      "properties": {
        "norad_id": 33973,
        "name": "COSMOS 2251 DEB",
        "group": "cosmos-2251-debris",
        "lat": 71.35168385356735,
        "lon": -131.79970539233074,
        "alt_km": 767.0259381407614,
        "timestamp": "2025-12-10T20:49:52.945843+00:00",
        "meta_object_name": "COSMOS 2251 DEB",
        "meta_object_id": "1993-036FG",
        "meta_epoch": "2025-12-10T10:42:05.925024",
        "meta_mean_motion": 14.45386914,
        "meta_eccentricity": 0.00472846,
        "meta_inclination": 74.0081,
        "meta_ra_of_asc_node": 107.1754,
        "meta_arg_of_pericenter": 286.0162,
        "meta_mean_anomaly": 138.3008,
        "meta_ephemeris_type": 0,
        "meta_classification_type": "U",
        "meta_norad_cat_id": 33973,
        "meta_element_set_no": 999,
        "meta_rev_at_epoch": 88567,
        "meta_bstar": 0.00025498741,
        "meta_mean_motion_dot": 8.81e-06,
        "meta_mean_motion_ddot": 0,
        "tle_line1": "1 33973U 93036FG  25344.44590191  .00000881  00000+0  25499-3 0  9995",
        "tle_line2": "2 33973  74.0081 107.1754 0047284 286.0162 138.3008 14.45386914885674"
      },
      "geometry": {
        "type": "Point",
        "coordinates": [
          -131.79970539233074,
          71.35168385356735
        ]
      }
    },
    {
      "type": "Feature",
      "properties": {
        "norad_id": 33975,
        "name": "COSMOS 2251 DEB",
        "group": "cosmos-2251-debris",
        "lat": -14.824703247973678,
        "lon": 83.3313341209434,
        "alt_km": 971.719572570837,
        "timestamp": "2025-12-10T20:49:52.945853+00:00",
        "meta_object_name": "COSMOS 2251 DEB",
        "meta_object_id": "1993-036FJ",
        "meta_epoch": "2025-12-10T07:11:31.966656",
        "meta_mean_motion": 14.00516982,
        "meta_eccentricity": 0.0191361,
        "meta_inclination": 73.8024,
        "meta_ra_of_asc_node": 88.742,
        "meta_arg_of_pericenter": 221.9997,
        "meta_mean_anomaly": 136.6332,
        "meta_ephemeris_type": 0,
        "meta_classification_type": "U",
        "meta_norad_cat_id": 33975,
        "meta_element_set_no": 999,
        "meta_rev_at_epoch": 85795,
        "meta_bstar": 0.0010806,
        "meta_mean_motion_dot": 1.854e-05,
        "meta_mean_motion_ddot": 0,
        "tle_line1": "1 33975U 93036FJ  25344.29967554  .00001854  00000+0  10806-2 0  9997",
        "tle_line2": "2 33975  73.8024  88.7420 0191361 221.9997 136.6332 14.00516982857956"
      },
      "geometry": {
        "type": "Point",
        "coordinates": [
          83.3313341209434,
          -14.824703247973678
        ]
      }
    },
    {
      "type": "Feature",
      "properties": {
        "norad_id": 33980,
        "name": "COSMOS 2251 DEB",
        "group": "cosmos-2251-debris",
        "lat": 31.122967417881412,
        "lon": -126.99895551164693,
        "alt_km": 685.6267124629885,
        "timestamp": "2025-12-10T20:49:52.945863+00:00",
        "meta_object_name": "COSMOS 2251 DEB",
        "meta_object_id": "1993-036FP",
        "meta_epoch": "2025-12-10T15:54:25.786944",
        "meta_mean_motion": 14.58629947,
        "meta_eccentricity": 0.00288108,
        "meta_inclination": 74.0216,
        "meta_ra_of_asc_node": 63.3542,
        "meta_arg_of_pericenter": 208.8905,
        "meta_mean_anomaly": 301.8306,
        "meta_ephemeris_type": 0,
        "meta_classification_type": "U",
        "meta_norad_cat_id": 33980,
        "meta_element_set_no": 999,
        "meta_rev_at_epoch": 88764,
        "meta_bstar": 0.0011665828,
        "meta_mean_motion_dot": 5.439e-05,
        "meta_mean_motion_ddot": 0,
        "tle_line1": "1 33980U 93036FP  25344.66279846  .00005439  00000+0  11666-2 0  9992",
        "tle_line2": "2 33980  74.0216  63.3542 0028810 208.8905 301.8306 14.58629947887648"
      },
      "geometry": {
        "type": "Point",
        "coordinates": [
          -126.99895551164693,
          31.122967417881412
        ]
      }
    },
    {
      "type": "Feature",
      "properties": {
        "norad_id": 33982,
        "name": "COSMOS 2251 DEB",
        "group": "cosmos-2251-debris",
        "lat": -8.639362502182058,
        "lon": 1.0150590149719583,
        "alt_km": 667.3877084177711,
        "timestamp": "2025-12-10T20:49:52.945873+00:00",
        "meta_object_name": "COSMOS 2251 DEB",
        "meta_object_id": "1993-036FR",
        "meta_epoch": "2025-12-10T11:41:11.573664",
        "meta_mean_motion": 14.6019759,
        "meta_eccentricity": 0.00750024,
        "meta_inclination": 74.0709,
        "meta_ra_of_asc_node": 4.2276,
        "meta_arg_of_pericenter": 49.3807,
        "meta_mean_anomaly": 100.3075,
        "meta_ephemeris_type": 0,
        "meta_classification_type": "U",
        "meta_norad_cat_id": 33982,
        "meta_element_set_no": 999,
        "meta_rev_at_epoch": 89126,
        "meta_bstar": 0.00055750496,
        "meta_mean_motion_dot": 2.765e-05,
        "meta_mean_motion_ddot": 0,
        "tle_line1": "1 33982U 93036FR  25344.48693951  .00002765  00000+0  55750-3 0  9993",
        "tle_line2": "2 33982  74.0709   4.2276 0075002  49.3807 100.3075 14.60197590891264"
      },
      "geometry": {
        "type": "Point",
        "coordinates": [
          1.0150590149719583,
          -8.639362502182058
        ]
      }
    },
    {
      "type": "Feature",
      "properties": {
        "norad_id": 33983,
        "name": "COSMOS 2251 DEB",
        "group": "cosmos-2251-debris",
        "lat": -11.424607824676219,
        "lon": 147.24811913984377,
        "alt_km": 728.6742266425526,
        "timestamp": "2025-12-10T20:49:52.945883+00:00",
        "meta_object_name": "COSMOS 2251 DEB",
        "meta_object_id": "1993-036FS",
        "meta_epoch": "2025-12-10T12:52:20.552736",
        "meta_mean_motion": 14.50655309,
        "meta_eccentricity": 0.00213487,
        "meta_inclination": 74.0495,
        "meta_ra_of_asc_node": 151.184,
        "meta_arg_of_pericenter": 254.3384,
        "meta_mean_anomaly": 162.4854,
        "meta_ephemeris_type": 0,
        "meta_classification_type": "U",
        "meta_norad_cat_id": 33983,
        "meta_element_set_no": 999,
        "meta_rev_at_epoch": 88597,
        "meta_bstar": 0.00083583534,
        "meta_mean_motion_dot": 3.265e-05,
        "meta_mean_motion_ddot": 0,
        "tle_line1": "1 33983U 93036FS  25344.53634899  .00003265  00000+0  83584-3 0  9998",
        "tle_line2": "2 33983  74.0495 151.1840 0021348 254.3384 162.4854 14.50655309885979"
      },
      "geometry": {
        "type": "Point",
        "coordinates": [
          147.24811913984377,
          -11.424607824676219
        ]
      }
    },
    {
      "type": "Feature",
      "properties": {
        "norad_id": 33984,
        "name": "COSMOS 2251 DEB",
        "group": "cosmos-2251-debris",
        "lat": -11.357898726744136,
        "lon": -12.585808170709324,
        "alt_km": 692.0777878822519,
        "timestamp": "2025-12-10T20:49:52.945893+00:00",
        "meta_object_name": "COSMOS 2251 DEB",
        "meta_object_id": "1993-036FT",
        "meta_epoch": "2025-12-10T11:37:09.506784",
        "meta_mean_motion": 14.66330931,
        "meta_eccentricity": 0.00232538,
        "meta_inclination": 74.0097,
        "meta_ra_of_asc_node": 351.457,
        "meta_arg_of_pericenter": 190.2538,
        "meta_mean_anomaly": 292.5865,
        "meta_ephemeris_type": 0,
        "meta_classification_type": "U",
        "meta_norad_cat_id": 33984,
        "meta_element_set_no": 999,
        "meta_rev_at_epoch": 89033,
        "meta_bstar": 0.0012479331,
        "meta_mean_motion_dot": 6.892e-05,
        "meta_mean_motion_ddot": 0,
        "tle_line1": "1 33984U 93036FT  25344.48413781  .00006892  00000+0  12479-2 0  9991",
        "tle_line2": "2 33984  74.0097 351.4570 0023253 190.2538 292.5865 14.66330931890330"
      },
      "geometry": {
        "type": "Point",
        "coordinates": [
          -12.585808170709324,
          -11.357898726744136
        ]
      }
    }
  ]
}